COSMOS 2425 (716)       
1 29670U 06062A   18002.45663902 -.00000020  00000-0  10000-3 0  9991
2 29670  65.3632 298.1374 0022454 342.1765  25.6986  2.13104993 85786
COSMOS 2426 (717)       
1 29671U 06062B   18001.50505578 -.00000023  00000-0  10000-3 0  9994
2 29671  65.3809 298.2644 0016477 170.0774  44.6909  2.13103148 85765
COSMOS 2433 (720)       
1 32275U 07052A   18001.64338487 -.00000019  00000-0  10000-3 0  9991
2 32275  65.6072  58.9563 0003998 255.6522  40.1138  2.13104868 79274
COSMOS 2432 (719)       
1 32276U 07052B   18001.53771184 -.00000018  00000-0  10000-3 0  9994
2 32276  65.6200  59.0355 0011230 327.3267 199.7295  2.13103974 79272
COSMOS 2434 (721)       
1 32393U 07065A   18002.45787795 -.00000020  00000-0  00000+0 0  9993
2 32393  64.9788 297.1916 0002256 106.0487 343.2063  2.13102974 78005
COSMOS 2436 (723)       
1 32395U 07065C   18002.12987132 -.00000020  00000-0  10000-3 0  9991
2 32395  64.9881 297.2510 0015879 354.2925 253.0060  2.13104334 77928
COSMOS 2456 (730)       
1 36111U 09070A   18002.11459251  .00000074  00000-0  00000+0 0  9997
2 36111  64.1819 176.7770 0003198 351.2770   6.4177  2.13102953 62654
COSMOS 2457 (733)       
1 36112U 09070B   18001.61863313  .00000080  00000-0  00000+0 0  9997
2 36112  64.1639 176.7083 0007048 147.6476 317.2333  2.13101670 62652
COSMOS 2458 (734)       
1 36113U 09070C   18002.44602919  .00000070  00000-0  10000-3 0  9997
2 36113  64.1694 176.6894 0003167  59.2863   8.4976  2.13102039 62673
COSMOS 2459 (731)       
1 36400U 10007A   18002.43943443 -.00000021  00000-0  10000-3 0  9994
2 36400  65.5175  58.0101 0026546 348.9174  57.8820  2.13102235 61026
COSMOS 2461 (735)       
1 36401U 10007B   18001.74677086 -.00000019  00000-0  10000-3 0  9992
2 36401  65.5095  58.0106 0005086  69.2080  76.8033  2.13102118 61003
COSMOS 2460 (732)       
1 36402U 10007C   18002.11617064 -.00000020  00000-0  10000-3 0  9997
2 36402  65.5008  57.9681 0001391 246.9003 223.4512  2.13101798 61014
COSMOS 2464 (736)       
1 37139U 10041C   18002.11913174 -.00000021  00000-0  00000+0 0  9990
2 37139  64.5823 297.0913 0023888   8.0205  49.1153  2.13102717 57085
COSMOS 2471 (701K)      
1 37372U 11009A   18002.18218094 -.00000020  00000-0  00000+0 0  9999
2 37372  65.4975  57.9112 0009294 234.3920  67.0055  2.13107803 53288
COSMOS 2474 (742)       
1 37829U 11055A   18002.11579071  .00000075  00000-0  00000+0 0  9994
2 37829  64.5063 177.4250 0006182 239.3637 338.1346  2.13101936 48658
COSMOS 2476 (744)       
1 37867U 11064A   18002.28975352  .00000073  00000-0  00000+0 0  9994
2 37867  64.4854 177.4853 0015742 238.1765 158.7692  2.13102005 48015
COSMOS 2477 (745)       
1 37868U 11064B   18002.13515256  .00000075  00000-0  00000+0 0  9994
2 37868  64.4943 177.5369 0013523 239.1798 218.1876  2.13101838 47961
COSMOS 2475 (743)       
1 37869U 11064C   18001.61695745  .00000081  00000-0  00000+0 0  9996
2 37869  64.5016 177.5474 0017772 269.5454 106.8774  2.13102077 47963
COSMOS 2485 (747)       
1 39155U 13019A   18002.05357134  .00000076  00000-0  00000+0 0  9998
2 39155  64.6555 177.5664 0016315 232.5823  28.1379  2.13102021 36475
COSMOS 2492 (754)       
1 39620U 14012A   18002.13543166 -.00000020  00000-0  10000-3 0  9995
2 39620  65.3901  57.8753 0014797 324.3152  33.7144  2.13103488 29428
COSMOS 2500 (755)       
1 40001U 14032A   18002.44763810 -.00000021  00000-0  00000+0 0  9992
2 40001  65.3313  57.8469 0007204 213.8157 246.3449  2.13102789 27652
COSMOS 2501 (702K)      
1 40315U 14075A   18001.69688905 -.00000024  00000-0  00000-0 0  9998
2 40315  64.3090 298.3778 0015518 213.0136 194.7748  2.13098518 24044
COSMOS 2514 (751)       
1 41330U 16008A   18001.80895484 -.00000020  00000-0  00000+0 0  9994
2 41330  65.1327  57.9635 0010671 219.8819 290.8060  2.13103381 14805
COSMOS 2516 (753)       
1 41554U 16032A   18001.88335419 -.00000023  00000-0  00000-0 0  9998
2 41554  64.5286 298.1906 0012481 227.8200 231.6253  2.13101792 12410
COSMOS 2522 (752)       
1 42939U 17055A   18002.07500297 -.00000022  00000-0  00000+0 0  9990
2 42939  64.7589 298.1015 0008685 257.9583 214.8931  2.13102062  2175
